0 BREEZE-M R/B
1 32301U 07057C   13282.47628667 -.00000103  00000-0  00000+0 0  8117
2 32301 015.8389 173.8730 5196811 072.7920 036.6047 01.90166926 40923
0 BREEZE-M R/B
1 32301U 07057C   13287.20385135 -.00000024  00000-0  00000+0 0  8126
2 32301 015.8357 173.2937 5197589 073.8165 033.0760 01.90165865 41012
0 BREEZE-M R/B
1 32301U 07057C   13289.34319759 -.00000084  00000-0  00000+0 0  8139
2 32301 015.8344 173.0329 5197956 074.2782 057.6637 01.90166462 41052
0 BREEZE-M R/B
1 32301U 07057C   13293.26212823 -.00000157  00000-0  00000+0 0  8141
2 32301 015.8321 172.5541 5198662 075.1263 220.5655 01.90167168 41130
